[{"OBJECT_NAME":"GHGSAT-C3","OBJECT_ID":"2022-057F","EPOCH":"2026-03-09T22:30:13.234752","MEAN_MOTION":15.32943835,"ECCENTRICITY":0.00073198,"INCLINATION":97.6431,"RA_OF_ASC_NODE":211.0668,"ARG_OF_PERICENTER":112.4588,"MEAN_ANOMALY":247.7429,"EPHEMERIS_TYPE":0,"CLASSIFICATION_TYPE":"U","NORAD_CAT_ID":52737,"ELEMENT_SET_NO":999,"REV_AT_EPOCH":21032,"BSTAR":0.00031249517,"MEAN_MOTION_DOT":9.871e-5,"MEAN_MOTION_DDOT":0},{"OBJECT_NAME":"STARLINK-35244","OBJECT_ID":"2025-221G","EPOCH":"2026-03-09T18:54:18.497376","MEAN_MOTION":15.30198605,"ECCENTRICITY":0.00015767,"INCLINATION":53.1596,"RA_OF_ASC_NODE":90.3947,"ARG_OF_PERICENTER":94.6614,"MEAN_ANOMALY":265.4567,"EPHEMERIS_TYPE":0,"CLASSIFICATION_TYPE":"U","NORAD_CAT_ID":65829,"ELEMENT_SET_NO":999,"REV_AT_EPOCH":2602,"BSTAR":0.00056327804,"MEAN_MOTION_DOT":0.0001636,"MEAN_MOTION_DDOT":0}]
